GLOBALSTAR M024         
1 25883U 99043A   25128.33067784  .00000019  00000+0  29641-2 0  9990
2 25883  51.9984 110.5495 0001563  25.5839 123.1835 11.10166118110434
GLOBALSTAR M027         
1 25884U 99043B   25128.39897528 -.00000057  00000+0  23857-3 0  9991
2 25884  52.0188 187.2545 0021346 286.2512  73.5933 11.04371963136844
GLOBALSTAR M054         
1 25885U 99043C   25128.74729995 -.00000017  00000+0  13758-2 0  9997
2 25885  52.0152 320.3979 0006698 104.7837  25.9447 11.39213094114557
GLOBALSTAR M053         
1 25886U 99043D   25128.63381505 -.00000071  00000+0 -61290-4 0  9994
2 25886  51.9984 265.5678 0002956  26.8687  61.5833 11.27664918114989
GLOBALSTAR M050         
1 25908U 99049B   25128.57183169 -.00000053  00000+0  39638-3 0  9993
2 25908  51.9985 225.5942 0008563 311.5634 150.7121 12.07452732148134
GLOBALSTAR M055         
1 25910U 99049D   25129.15136066 -.00000068  00000+0  22759-3 0  9997
2 25910  51.9998 111.1776 0007164  49.8322 310.3156 12.29427172163703
